#dP2024  5 23  0  0  0.00000000      97 __u+U IGS20 FIT  IAC
## 2315 345600.00000000   900.00000000 60453 0.0000000000000
+  118   C06C07C08C09C10C11C12C13C14C16C19C20C21C22C23C24C25
+        C26C27C28C29C30C32C33C34C35C36C37C38C39C40C41C42C43
+        C44C45C46E02E03E04E05E07E08E09E10E11E12E13E14E15E18
+        E19E21E24E25E26E27E30E31E33E34E36G02G03G04G05G06G07
+        G08G09G10G11G12G13G14G15G16G17G18G19G20G21G22G23G24
+        G26G27G28G29G30G31G32J02J03J04R01R02R03R04R05R07R08
+        R09R11R12R13R14R15R16R17R18R19R20R21R22R24R25R26  0
++         7  7  8  7  7  7  7  8  7  7  6  5  6  6  5  6  6
++         6  5  6  5  5  5  6  6  6  5  6  6  6  6  6  6  6
++         6  6  6  4  4  4  4  4  5  4  4  4  4  4  4  4  4
++         4  4  4  4  4  4  4  4  4  4  4  3  3  3  3  3  3
++         3  3  3  3  3  3  3  3  3  3  3  3  3  3  3  3  3
++         3  3  3  3  3  3  3 11 11 11  8  6  6  6  6  7  7
++         7  6  7  8  7  6  7  7  6  7  8  7  7  7  8 11  0
%c M  cc GPS ccc cccc cccc cccc cccc ccccc ccccc ccccc ccccc
%c cc cc ccc ccc cccc cccc cccc cccc ccccc ccccc ccccc ccccc
%f  1.2500000  1.025000000  0.00000000000  0.000000000000000
%f  0.0000000  0.000000000  0.00000000000  0.000000000000000
%i    0    0    0    0      0      0      0      0         0
%i    0    0    0    0      0      0      0      0         0
/* INFORMATION & ANALYSIS CENTER (IAC)            FINAL DATA
/* S/V CLOCKS ARE ALIGNED TO GNSS TIME                      
/* G:C1WC2W R:C1PC2P E:C1XC5X C:C2IC6I J:C1CC2S             
/* PCV:IGS20_2290 OL/AL:FES2004  NONE     YN ORB:CoN CLK:CoN
*  2024 05 23  1 30  0.00000000
PC06  -5811.565634  39901.790053 -11696.741018    442.976651
PC07  -7601.748755  26681.370092  31845.470460   -705.300191
PC08 -20753.644468  29814.958773 -21600.654070   -140.211251
PC09  -1533.055055  41616.541567  -3352.001224    216.677234
PC10   2466.164765  28918.135093  31034.637274      5.327318
PC11   8271.605332 -16229.065428 -21076.744707    576.098482
PC12  17410.355430   3800.751314 -21444.527294   -248.971601
PC13 -13885.266059  30342.751373 -25787.051900    436.422752
PC14  17816.740101 -11132.765234  18414.764725    915.647256
PC16  -7724.720716  38391.115362 -14871.736089   -539.183041
PC19  -7861.714223  14542.751774 -22451.741712   -912.936379
PC20 -23756.313615   6829.889912 -12900.383809   -493.465433
PC21  26752.382158   5841.857498  -5463.364637   -968.888034
PC22  13542.611877  14413.307464 -19704.451817      4.132281
PC23  -2705.793101 -20291.712813 -18956.508161   -780.882971
PC24  20555.684216 -14296.426083  12291.672500    918.139584
PC25  11925.406739 -24748.289150  -4857.033322    406.671241
PC26  16625.316628   3638.677416  22095.477518   -295.129178
PC27 -18651.186464 -12784.909666  16334.467329    316.630822
PC28 -13240.561201 -24457.686029   2290.250073    242.879674
PC29  -1103.751004  22689.895885  16197.753709    285.020650
PC30 -14813.913876   6315.862654  22777.494400    -83.805828
PC32 -26724.643526  -5712.824853   5600.947363   -629.307362
PC33   7939.726480 -14602.927913  22424.190747   -963.566767
PC34  13971.350087  -8086.896091 -22780.420736    439.553927
PC35  13990.309687  24042.937819  -1990.840758    356.511935
PC36 -12501.789678  24483.942896   4847.394373     89.353286
PC37 -16477.145227  -4143.722639 -22128.009544   -958.320255
PC38 -24527.029831  31053.370754 -14709.727432    156.760964
PC39  -8517.235476  36290.234170 -19427.171248     -8.440037
PC40 -11464.580022  20567.808754  34967.686413    -71.466436
PC41 -12608.543469 -14639.063957  20181.645716   -954.676017
PC42  24771.780825  -5925.509435  11491.447880   -443.532727
PC43   1963.480464 -22221.742164 -16793.090269     72.653237
PC44  19237.354692  12099.859785 -16195.130361    481.335412
PC45   2407.466822  20354.397569  18948.884313    -87.949161
PC46 -20489.803463  14893.329420 -11752.158124   -150.477210
PE02 -10065.487943  18958.822601  20382.342080    129.550612
PE03   1330.556053  20263.281847 -21539.368484   -115.495924
PE04 -19203.159782 -21424.565279   6953.219176   -403.443955
PE05 -16946.432138   7221.006275 -23159.029262   4750.182164
PE07  25463.243385  10416.663426  10953.250434   -121.636387
PE08  18681.095455  21624.649588  -7746.276520   -275.015415
PE09 -25409.110233 -10542.322112 -10894.557615   -452.657796
PE10 -12376.308094 -14781.182649  22449.227174   -626.900244
PE11 -15771.336951  -3101.439067  24839.267256   2808.624710
PE12  -7556.848102 -23082.935503  16924.077123  -1050.153129
PE13  15592.957445   3744.190645 -24882.454292    -21.746883
PE14  15161.107771  23749.914012  10214.195496     45.340909
PE15   7216.553713  23446.358564 -16557.631914   -104.468652
PE18  -2990.597200 -20908.929776 -16457.740330    141.480616
PE19    766.612076 -19267.046700  22469.747625    -15.107349
PE21  25447.275428 -14057.333831  -5577.318367   -595.955640
PE24 -26465.943776    354.659018 -13284.521389   -777.438018
PE25 -25644.624612  13845.243764   5187.112695      4.835978
PE26  14663.823538 -18306.059704 -18060.195033    462.211494
PE27  26550.384859   -676.565512  13065.165279   -356.239013
PE30  11848.466153  13078.188597  23753.146396   -328.004043
PE31 -11994.178629 -12929.791215 -23767.052654    -24.255122
PE33   5582.905540 -29009.513900  -1857.999153     11.988768
PE34  -5204.053092  29110.461130   1333.712897   -112.770963
PE36 -14714.080824  17773.878138  18529.000837   -230.853818
PG02 -13956.551697  11630.943570  19752.060477   -431.362494
PG03 -22811.270195  12864.848196  -4162.821292    377.061223
PG04 -15679.410686   5832.887457 -20643.271318    367.034588
PG05  24072.125897  -3579.508907 -10921.304960   -173.673011
PG06   5918.927418  22174.037086 -13210.589468    259.018530
PG07  -5507.586288  25383.122429  -3651.632799   -134.634036
PG08 -22190.842778  -2698.610413  14550.988157    192.463728
PG09  -3570.813712  15690.937316 -21201.892295    206.446558
PG10  -4524.837913 -14131.686344  22222.969180    -27.950103
PG11  12751.544697  10700.637762 -20686.759423   -668.644089
PG12  24221.316453 -10572.276426  -2620.069659   -507.704803
PG13  21650.153889  12274.423595   9395.423584    652.532523
PG14    174.084788  16268.357054  20994.635507    407.357520
PG15  22341.004641     47.814869  14010.166651    161.970783
PG16 -23355.815404  -1884.036887 -13261.354334   -284.510384
PG17   8576.322247  20483.700779  14869.320656    703.806226
PG18   5711.123776 -25600.806108  -3413.599087   -614.619195
PG19  16174.358672  20405.886466   6023.731384    485.863534
PG20  18613.110723   3378.236348 -18524.204721    375.604680
PG21 -15128.349736   5069.869914  21515.203645    120.018420
PG22   8224.567292  13322.565254  21847.825017    -17.336784
PG23   8593.383025 -17423.231523  18043.939451    232.114997
PG24  14559.219832  -9688.521814  19458.671718   -471.993345
PG26 -13977.746166  -9844.482556 -20551.635452    148.802665
PG27 -23098.953713 -12511.363022   4949.750186    -25.222117
PG28  -5690.917069 -23588.593379 -10813.297056   -255.716360
PG29   7390.107989 -13306.324104 -21809.243384   -597.383136
PG30   1916.298059  25569.321588   6510.447404   -386.176719
PG31 -11381.972954 -15045.773562 -18750.950281   -227.734997
PG32 -12255.767763 -19967.569188  12913.141672   -617.915193
PJ02 -30769.140767  25935.584426  17615.208849     -0.191075
PJ03 -27213.409115  26449.468827  23431.295318      0.295092
PJ04 -30023.456704  19741.028499 -16916.541355     50.319377
PR01  24255.208951   7255.285297  -3192.566283     86.175549
PR02  21516.337265   -671.964786  13683.524263    -23.036570
PR03   6787.284854  -9270.786361  22818.825136    100.675392
PR04 -11122.100353 -12362.145760  19379.412464    237.643413
PR05 -23182.883946  -9120.078221   5542.769169    131.898021
PR07  -6041.058443   9478.964690 -22856.645580     82.982970
PR08  11461.644213  12318.581401 -19096.102047     -4.047418
PR09 -19220.268017  13288.555243 -10108.127961    188.085718
PR11  -2652.318020  16098.874132  19612.556654     23.829777
PR12  13022.230145   1718.573409  21891.013899     40.443760
PR13  19166.539083 -11339.387670  12427.984229    -47.626935
PR14  14466.939151 -19829.449841  -6969.093280     26.498431
PR15   1357.886359 -15319.287867 -20331.698250     79.554876
PR16 -12751.455167  -1770.893311 -22001.852968     25.821734
PR17   1622.047041 -20613.114723 -14909.214594     89.192148
PR18  -6536.811735 -24674.201838    721.104324    143.381545
PR19 -10663.694861 -17856.068133  14760.200640   -277.606752
PR20  -9874.563024   3475.953700  23260.865081   -113.267722
PR21  -1817.417786  20520.080068  15053.452877   -103.057078
PR22   6403.177211  24614.670388  -1839.805246    110.002591
PR24   9997.526356  -4648.590821 -22991.343842    -56.894359
PR25  -2480.675633  20783.722120  14594.301757    -37.752855
PR26  10333.647186  12272.869715 -19815.914113     -7.823433
EOF
